CTC1_L_00424001-01
1 10000U 23491RY  26075.70034722  .00000000  00000+0  00000-0 0  9994
2 10000  90.0000   0.0000 0000000   0.0000   0.0000 12.65579349    14
CTC1_L_00424001-02
1 10001U 23736UJ  26075.70034722  .00000000  00000+0  00000-0 0  9997
2 10001  90.0000   0.0000 0000000   0.0000  90.0000 12.65579349    14
CTC1_L_00424001-03
1 10002U 26092BK  26075.70034722  .00000000  00000+0  00000-0 0  9996
2 10002  90.0000   0.0000 0000000   0.0000 180.0000 12.65579349    15
CTC1_L_00424001-04
1 10003U 25636ZP  26075.70034722  .00000000  00000+0  00000-0 0  9990
2 10003  90.0000   0.0000 0000000   0.0000 270.0000 12.65579349    16
CTC1_L_00424002-01
1 10004U 22806WU  26075.70034722  .00000000  00000+0  00000-0 0  9997
2 10004  90.0000  12.0000 0000000   0.0000  12.0000 12.65579349    14
CTC1_L_00424002-02
1 10005U 24921YL  26075.70034722  .00000000  00000+0  00000-0 0  9998
2 10005  90.0000  12.0000 0000000   0.0000 102.0000 12.65579349    15
CTC1_L_00424002-03
1 10006U 22716NO  26075.70034722  .00000000  00000+0  00000-0 0  9999
2 10006  90.0000  12.0000 0000000   0.0000 192.0000 12.65579349    15
CTC1_L_00424002-04
1 10007U 24890D   26075.70034722  .00000000  00000+0  00000-0 0  9995
2 10007  90.0000  12.0000 0000000   0.0000 282.0000 12.65579349    16
CTC1_L_00424003-01
1 10008U 22879OD  26075.70034722  .00000000  00000+0  00000-0 0  9991
2 10008  90.0000  24.0000 0000000   0.0000  24.0000 12.65579349    14
CTC1_L_00424003-02
1 10009U 22421OS  26075.70034722  .00000000  00000+0  00000-0 0  9995
2 10009  90.0000  24.0000 0000000   0.0000 114.0000 12.65579349    15
CTC1_L_00424003-03
1 10010U 24904YV  26075.70034722  .00000000  00000+0  00000-0 0  9995
2 10010  90.0000  24.0000 0000000   0.0000 204.0000 12.65579349    17
CTC1_L_00424003-04
1 10011U 23687VV  26075.70034722  .00000000  00000+0  00000-0 0  9993
2 10011  90.0000  24.0000 0000000   0.0000 294.0000 12.65579349    17
CTC1_L_00424004-01
1 10012U 22257CK  26075.70034722  .00000000  00000+0  00000-0 0  9996
2 10012  90.0000  36.0000 0000000   0.0000  36.0000 12.65579349    15
CTC1_L_00424004-02
1 10013U 22862XG  26075.70034722  .00000000  00000+0  00000-0 0  9999
2 10013  90.0000  36.0000 0000000   0.0000 126.0000 12.65579349    16
CTC1_L_00424004-03
1 10014U 24438QI  26075.70034722  .00000000  00000+0  00000-0 0  9991
2 10014  90.0000  36.0000 0000000   0.0000 216.0000 12.65579349    17
CTC1_L_00424004-04
1 10015U 23470VT  26075.70034722  .00000000  00000+0  00000-0 0  9997
2 10015  90.0000  36.0000 0000000   0.0000 306.0000 12.65579349    18
CTC1_L_00424005-01
1 10016U 22989VX  26075.70034722  .00000000  00000+0  00000-0 0  9992
2 10016  90.0000  48.0000 0000000   0.0000  48.0000 12.65579349    15
CTC1_L_00424005-02
1 10017U 22948CC  26075.70034722  .00000000  00000+0  00000-0 0  9998
2 10017  90.0000  48.0000 0000000   0.0000 138.0000 12.65579349    16
CTC1_L_00424005-03
1 10018U 23644QJ  26075.70034722  .00000000  00000+0  00000-0 0  9993
2 10018  90.0000  48.0000 0000000   0.0000 228.0000 12.65579349    17
CTC1_L_00424005-04
1 10019U 26571AY  26075.70034722  .00000000  00000+0  00000-0 0  9996
2 10019  90.0000  48.0000 0000000   0.0000 318.0000 12.65579349    18
CTC1_L_00424006-01
1 10020U 25728QW  26075.70034722  .00000000  00000+0  00000-0 0  9991
2 10020  90.0000  60.0000 0000000   0.0000  60.0000 12.65579349    18
CTC1_L_00424006-02
1 10021U 26813ZX  26075.70034722  .00000000  00000+0  00000-0 0  9998
2 10021  90.0000  60.0000 0000000   0.0000 150.0000 12.65579349    19
CTC1_L_00424006-03
1 10022U 24088LN  26075.70034722  .00000000  00000+0  00000-0 0  9991
2 10022  90.0000  60.0000 0000000   0.0000 240.0000 12.65579349    10
CTC1_L_00424006-04
1 10023U 23945XD  26075.70034722  .00000000  00000+0  00000-0 0  9993
2 10023  90.0000  60.0000 0000000   0.0000 330.0000 12.65579349    11
CTC1_L_00424007-01
1 10024U 22890ZA  26075.70034722  .00000000  00000+0  00000-0 0  9992
2 10024  90.0000  72.0000 0000000   0.0000  72.0000 12.65579349    18
CTC1_L_00424007-02
1 10025U 24543BY  26075.70034722  .00000000  00000+0  00000-0 0  9990
2 10025  90.0000  72.0000 0000000   0.0000 162.0000 12.65579349    19
CTC1_L_00424007-03
1 10026U 24848TP  26075.70034722  .00000000  00000+0  00000-0 0  9999
2 10026  90.0000  72.0000 0000000   0.0000 252.0000 12.65579349    10
CTC1_L_00424007-04
1 10027U 22724EM  26075.70034722  .00000000  00000+0  00000-0 0  9991
2 10027  90.0000  72.0000 0000000   0.0000 342.0000 12.65579349    11
CTC1_L_00424008-01
1 10028U 25967JA  26075.70034722  .00000000  00000+0  00000-0 0  9994
2 10028  90.0000  84.0000 0000000   0.0000  84.0000 12.65579349    18
CTC1_L_00424008-02
1 10029U 22823JP  26075.70034722  .00000000  00000+0  00000-0 0  9993
2 10029  90.0000  84.0000 0000000   0.0000 174.0000 12.65579349    19
CTC1_L_00424008-03
1 10030U 25155TD  26075.70034722  .00000000  00000+0  00000-0 0  9996
2 10030  90.0000  84.0000 0000000   0.0000 264.0000 12.65579349    11
CTC1_L_00424008-04
1 10031U 22801TE  26075.70034722  .00000000  00000+0  00000-0 0  9992
2 10031  90.0000  84.0000 0000000   0.0000 354.0000 12.65579349    12
CTC1_L_00424009-01
1 10032U 23909BE  26075.70034722  .00000000  00000+0  00000-0 0  9993
2 10032  90.0000  96.0000 0000000   0.0000  96.0000 12.65579349    19
CTC1_L_00424009-02
1 10033U 26593GM  26075.70034722  .00000000  00000+0  00000-0 0  9996
2 10033  90.0000  96.0000 0000000   0.0000 186.0000 12.65579349    10
CTC1_L_00424009-03
1 10034U 25047GN  26075.70034722  .00000000  00000+0  00000-0 0  9990
2 10034  90.0000  96.0000 0000000   0.0000 276.0000 12.65579349    11
CTC1_L_00424009-04
1 10035U 23300HS  26075.70034722  .00000000  00000+0  00000-0 0  9991
2 10035  90.0000  96.0000 0000000   0.0000   6.0000 12.65579349    13
CTC1_L_00424010-01
1 10036U 22066EN  26075.70034722  .00000000  00000+0  00000-0 0  9990
2 10036  90.0000 108.0000 0000000   0.0000 108.0000 12.65579349    11
CTC1_L_00424010-02
1 10037U 26027YK  26075.70034722  .00000000  00000+0  00000-0 0  9992
2 10037  90.0000 108.0000 0000000   0.0000 198.0000 12.65579349    11
CTC1_L_00424010-03
1 10038U 25575MD  26075.70034722  .00000000  00000+0  00000-0 0  9990
2 10038  90.0000 108.0000 0000000   0.0000 288.0000 12.65579349    12
CTC1_L_00424010-04
1 10039U 26217K   26075.70034722  .00000000  00000+0  00000-0 0  9995
2 10039  90.0000 108.0000 0000000   0.0000  18.0000 12.65579349    14
CTC1_L_00424011-01
1 10040U 22614GI  26075.70034722  .00000000  00000+0  00000-0 0  9994
2 10040  90.0000 120.0000 0000000   0.0000 120.0000 12.65579349    14
CTC1_L_00424011-02
1 10041U 25737SE  26075.70034722  .00000000  00000+0  00000-0 0  9994
2 10041  90.0000 120.0000 0000000   0.0000 210.0000 12.65579349    15
CTC1_L_00424011-03
1 10042U 22972EF  26075.70034722  .00000000  00000+0  00000-0 0  9993
2 10042  90.0000 120.0000 0000000   0.0000 300.0000 12.65579349    16
CTC1_L_00424011-04
1 10043U 24220NJ  26075.70034722  .00000000  00000+0  00000-0 0  9992
2 10043  90.0000 120.0000 0000000   0.0000  30.0000 12.65579349    17
CTC1_L_00424012-01
1 10044U 22566VT  26075.70034722  .00000000  00000+0  00000-0 0  9994
2 10044  90.0000 132.0000 0000000   0.0000 132.0000 12.65579349    14
CTC1_L_00424012-02
1 10045U 22612RE  26075.70034722  .00000000  00000+0  00000-0 0  9997
2 10045  90.0000 132.0000 0000000   0.0000 222.0000 12.65579349    15
CTC1_L_00424012-03
1 10046U 26008YO  26075.70034722  .00000000  00000+0  00000-0 0  9991
2 10046  90.0000 132.0000 0000000   0.0000 312.0000 12.65579349    16
CTC1_L_00424012-04
1 10047U 25583JT  26075.70034722  .00000000  00000+0  00000-0 0  9999
2 10047  90.0000 132.0000 0000000   0.0000  42.0000 12.65579349    17
CTC1_L_00424013-01
1 10048U 23898MU  26075.70034722  .00000000  00000+0  00000-0 0  9997
2 10048  90.0000 144.0000 0000000   0.0000 144.0000 12.65579349    14
CTC1_L_00424013-02
1 10049U 22691UK  26075.70034722  .00000000  00000+0  00000-0 0  9998
2 10049  90.0000 144.0000 0000000   0.0000 234.0000 12.65579349    15
CTC1_L_00424013-03
1 10050U 24571KQ  26075.70034722  .00000000  00000+0  00000-0 0  9999
2 10050  90.0000 144.0000 0000000   0.0000 324.0000 12.65579349    17
CTC1_L_00424013-04
1 10051U 26780PR  26075.70034722  .00000000  00000+0  00000-0 0  9994
2 10051  90.0000 144.0000 0000000   0.0000  54.0000 12.65579349    18
CTC1_L_00424014-01
1 10052U 25395EU  26075.70034722  .00000000  00000+0  00000-0 0  9996
2 10052  90.0000 156.0000 0000000   0.0000 156.0000 12.65579349    15
CTC1_L_00424014-02
1 10053U 24990CC  26075.70034722  .00000000  00000+0  00000-0 0  9997
2 10053  90.0000 156.0000 0000000   0.0000 246.0000 12.65579349    16
CTC1_L_00424014-03
1 10054U 22166NV  26075.70034722  .00000000  00000+0  00000-0 0  9991
2 10054  90.0000 156.0000 0000000   0.0000 336.0000 12.65579349    17
CTC1_L_00424014-04
1 10055U 22359LA  26075.70034722  .00000000  00000+0  00000-0 0  9996
2 10055  90.0000 156.0000 0000000   0.0000  66.0000 12.65579349    18
CTC1_L_00424015-01
1 10056U 22907GW  26075.70034722  .00000000  00000+0  00000-0 0  9996
2 10056  90.0000 168.0000 0000000   0.0000 168.0000 12.65579349    15
CTC1_L_00424015-02
1 10057U 23843VN  26075.70034722  .00000000  00000+0  00000-0 0  9997
2 10057  90.0000 168.0000 0000000   0.0000 258.0000 12.65579349    16
CTC1_L_00424015-03
1 10058U 23825KZ  26075.70034722  .00000000  00000+0  00000-0 0  9998
2 10058  90.0000 168.0000 0000000   0.0000 348.0000 12.65579349    17
CTC1_L_00424015-04
1 10059U 22342WO  26075.70034722  .00000000  00000+0  00000-0 0  9992
2 10059  90.0000 168.0000 0000000   0.0000  78.0000 12.65579349    18
CTC1_L_00424016-01
1 10060U 24574NL  26075.70034722  .00000000  00000+0  00000-0 0  9993
2 10060  90.0000 180.0000 0000000   0.0000 180.0000 12.65579349    18
CTC1_L_00424016-02
1 10061U 22269KA  26075.70034722  .00000000  00000+0  00000-0 0  9993
2 10061  90.0000 180.0000 0000000   0.0000 270.0000 12.65579349    19
